STARLINK-5480           
1 55664U 23021AN  24229.16717474  .00005156  00000+0  43982-3 0  9995
2 55664  70.0004 163.0333 0003133 275.7223  84.3579 14.98311499 83529
STARLINK-5474           
1 55665U 23021AP  24228.94601279  .00009184  00000+0  77638-3 0  9996
2 55665  70.0012 163.4655 0002562 275.1149  84.9718 14.98337353 83793
STARLINK-5456           
1 55667U 23021AR  24229.20903917  .00008792  00000+0  74359-3 0  9993
2 55667  70.0004 162.7764 0003153 275.5154  84.5646 14.98336879 83536
STARLINK-5455           
1 55668U 23021AS  24229.16298154  .00007565  00000+0  64132-3 0  9994
2 55668  70.0006 163.0180 0002864 276.8678  83.2155 14.98318965 83524
STARLINK-5459           
1 55669U 23021AT  24229.22139100  .00007870  00000+0  66682-3 0  9998
2 55669  69.9999 162.8209 0003051 275.1536  84.9275 14.98319794 83539
STARLINK-5423           
1 55670U 23021AU  24229.20887095  .00007737  00000+0  65567-3 0  9994
2 55670  70.0006 162.7770 0002705 277.4153  82.6699 14.98318534 83536
STARLINK-5460           
1 55671U 23021AV  24229.18819162  .00007898  00000+0  66904-3 0  9996
2 55671  70.0010 163.0978 0002460 262.8079  97.2801 14.98326369 83520
STARLINK-5461           
1 55672U 23021AW  24229.20920981  .01524408  13475-2  29486-2 0  9990
2 55672  69.9945 151.0721 0003731 260.7397  99.3392 16.00504359 83812
STARLINK-5463           
1 55673U 23021AX  24229.20468291  .00009817  00000+0  82929-3 0  9992
2 55673  70.0010 162.7615 0002316 275.1447  84.9447 14.98334971 83530
STARLINK-5462           
1 55674U 23021AY  24228.92931005  .00003776  00000+0  32410-3 0  9997
2 55674  70.0006 163.4089 0002509 255.3995 104.6885 14.98331288 83793
STARLINK-5232           
1 55675U 23021AZ  24229.18799628  .00005596  00000+0  47637-3 0  9999
2 55675  70.0005 162.7049 0002870 266.4538  93.6293 14.98331512 83530
STARLINK-5300           
1 55676U 23021BA  24229.14606413  .00003133  00000+0  27011-3 0  9994
2 55676  70.0033 143.0889 0002317 272.2832  87.8062 14.98345498 84015
STARLINK-5324           
1 55677U 23021BB  24229.19195359  .00007519  00000+0  63747-3 0  9990
2 55677  70.0007 142.8445 0002875 269.5933  90.4896 14.98318839 84027
STARLINK-5314           
1 55678U 23021BC  24229.20051916  .00001169  00000+0  10567-3 0  9990
2 55678  70.0002 162.7448 0002817 262.8052  97.2787 14.98349174 83536
STARLINK-30040          
1 55697U 23026C   24228.45260780  .00000537  00000+0  69159-5 0  9994
2 55697  43.0010 287.4852 0000528 288.4762  71.6050 15.73725459 85189
STARLINK-30064          
1 55700U 23026F   24228.64966235  .06562956  91689-5  25563-2 0  9999
2 55700  42.9973 295.9892 0027316  17.5853 112.6308 16.21869713 85171
STARLINK-30047          
1 55709U 23026Q   24229.25001157  .00998044  00000+0  33498-2 0  9991
2 55709  42.9962 293.4122 0004273  53.3071 190.0209 15.86879638 85227
STARLINK-5592           
1 55741U 23028A   24229.20146267  .00002458  00000+0  21371-3 0  9999
2 55741  69.9975 242.9764 0003229 271.4520  88.6269 14.98329204 80571
STARLINK-5594           
1 55742U 23028B   24229.20563834  .00002473  00000+0  21495-3 0  9997
2 55742  69.9978 242.9897 0003181 271.4091  88.6703 14.98328532 80589
STARLINK-5602           
1 55743U 23028C   24228.74249802 -.00000436  00000+0 -28719-4 0  9998
2 55743  69.9982 244.1835 0003105 271.9513  88.1291 14.98327773 80517
STARLINK-5601           
1 55744U 23028D   24229.20580298  .00002224  00000+0  19414-3 0  9994
2 55744  69.9976 242.9912 0003146 271.2953  88.7846 14.98328488 80582
STARLINK-5565           
1 55745U 23028E   24228.77226222 -.00000758  00000+0 -54505-4 0  9993
2 55745  69.9979 243.8893 0003295 269.8286  90.2496 14.99131950 80521
STARLINK-5579           
1 55746U 23028F   24229.17642917  .00002508  00000+0  21798-3 0  9992
2 55746  69.9975 242.8880 0003056 273.6842  86.3968 14.98318959 80580
STARLINK-5539           
1 55747U 23028G   24228.79254536  .00002551  00000+0  22150-3 0  9997
2 55747  69.9986 243.9542 0003078 268.9661  91.1146 14.98339067 80529
STARLINK-5580           
1 55748U 23028H   24229.18893561  .00001046  00000+0  95491-4 0  9996
2 55748  69.9980 242.9287 0003209 266.8405  93.2387 14.98327435 80580
STARLINK-5560           
1 55749U 23028J   24229.18060606  .00001954  00000+0  17159-3 0  9995
2 55749  69.9974 242.9018 0003116 274.4503  85.6300 14.98319647 80583
STARLINK-5573           
1 55750U 23028K   24229.18478045  .00001203  00000+0  10866-3 0  9992
2 55750  69.9979 242.9153 0003085 266.6297  93.4509 14.98316329 80580
