OBJECT_NAME,OBJECT_ID,EPOCH,MEAN_MOTION,ECCENTRICITY,INCLINATION,RA_OF_ASC_NODE,ARG_OF_PERICENTER,MEAN_ANOMALY,EPHEMERIS_TYPE,CLASSIFICATION_TYPE,NORAD_CAT_ID,ELEMENT_SET_NO,REV_AT_EPOCH,BSTAR,MEAN_MOTION_DOT,MEAN_MOTION_DDOT
STARLINK-5480,2023-021AN,2024-08-16T04:00:43.897536,14.98311499,.0003133,70.0004,163.0333,275.7223,84.3579,0,U,55664,999,8352,.43982E-3,.5156E-4,0
STARLINK-5474,2023-021AP,2024-08-15T22:42:15.505056,14.98337353,.0002562,70.0012,163.4655,275.1149,84.9718,0,U,55665,999,8379,.77638E-3,.9184E-4,0
STARLINK-5456,2023-021AR,2024-08-16T05:01:00.984288,14.98336879,.0003153,70.0004,162.7764,275.5154,84.5646,0,U,55667,999,8353,.74359E-3,.8792E-4,0
STARLINK-5455,2023-021AS,2024-08-16T03:54:41.605056,14.98318965,.0002864,70.0006,163.0180,276.8678,83.2155,0,U,55668,999,8352,.64132E-3,.7565E-4,0
STARLINK-5459,2023-021AT,2024-08-16T05:18:48.182400,14.98319794,.0003051,69.9999,162.8209,275.1536,84.9275,0,U,55669,999,8353,.66682E-3,.787E-4,0
STARLINK-5423,2023-021AU,2024-08-16T05:00:46.450080,14.98318534,.0002705,70.0006,162.7770,277.4153,82.6699,0,U,55670,999,8353,.65567E-3,.7737E-4,0
STARLINK-5460,2023-021AV,2024-08-16T04:30:59.755968,14.98326369,.000246,70.0010,163.0978,262.8079,97.2801,0,U,55671,999,8352,.66904E-3,.7898E-4,0
STARLINK-5461,2023-021AW,2024-08-16T05:01:15.727584,16.00504359,.0003731,69.9945,151.0721,260.7397,99.3392,0,U,55672,999,8381,.29486E-2,.1524408E-1,.13475E-2
STARLINK-5463,2023-021AX,2024-08-16T04:54:44.603424,14.98334971,.0002316,70.0010,162.7615,275.1447,84.9447,0,U,55673,999,8353,.82929E-3,.9817E-4,0
STARLINK-5462,2023-021AY,2024-08-15T22:18:12.388320,14.98331288,.0002509,70.0006,163.4089,255.3995,104.6885,0,U,55674,999,8379,.3241E-3,.3776E-4,0
STARLINK-5232,2023-021AZ,2024-08-16T04:30:42.878592,14.98331512,.000287,70.0005,162.7049,266.4538,93.6293,0,U,55675,999,8353,.47637E-3,.5596E-4,0
STARLINK-5300,2023-021BA,2024-08-16T03:30:19.940832,14.98345498,.0002317,70.0033,143.0889,272.2832,87.8062,0,U,55676,999,8401,.27011E-3,.3133E-4,0
STARLINK-5324,2023-021BB,2024-08-16T04:36:24.790176,14.98318839,.0002875,70.0007,142.8445,269.5933,90.4896,0,U,55677,999,8402,.63747E-3,.7519E-4,0
STARLINK-5314,2023-021BC,2024-08-16T04:48:44.855424,14.98349174,.0002817,70.0002,162.7448,262.8052,97.2787,0,U,55678,999,8353,.10567E-3,.1169E-4,0
STARLINK-30040,2023-026C,2024-08-15T10:51:45.313920,15.73725459,.0000528,43.0010,287.4852,288.4762,71.6050,0,U,55697,999,8518,.69159E-5,.537E-5,0
STARLINK-30064,2023-026F,2024-08-15T15:35:30.827040,16.21869713,.0027316,42.9973,295.9892,17.5853,112.6308,0,U,55700,999,8517,.25563E-2,.6562956E-1,.91689E-5
STARLINK-30047,2023-026Q,2024-08-16T06:00:00.999648,15.86879638,.0004273,42.9962,293.4122,53.3071,190.0209,0,U,55709,999,8522,.33498E-2,.998044E-2,0
STARLINK-5592,2023-028A,2024-08-16T04:50:06.374688,14.98329204,.0003229,69.9975,242.9764,271.4520,88.6269,0,U,55741,999,8057,.21371E-3,.2458E-4,0
STARLINK-5594,2023-028B,2024-08-16T04:56:07.152576,14.98328532,.0003181,69.9978,242.9897,271.4091,88.6703,0,U,55742,999,8058,.21495E-3,.2473E-4,0
STARLINK-5602,2023-028C,2024-08-15T17:49:11.828928,14.98327773,.0003105,69.9982,244.1835,271.9513,88.1291,0,U,55743,999,8051,-.28719E-4,-.436E-5,0
STARLINK-5601,2023-028D,2024-08-16T04:56:21.377472,14.98328488,.0003146,69.9976,242.9912,271.2953,88.7846,0,U,55744,999,8058,.19414E-3,.2224E-4,0
STARLINK-5565,2023-028E,2024-08-15T18:32:03.455808,14.99131950,.0003295,69.9979,243.8893,269.8286,90.2496,0,U,55745,999,8052,-.54505E-4,-.758E-5,0
STARLINK-5579,2023-028F,2024-08-16T04:14:03.480288,14.98318959,.0003056,69.9975,242.8880,273.6842,86.3968,0,U,55746,999,8058,.21798E-3,.2508E-4,0
STARLINK-5539,2023-028G,2024-08-15T19:01:15.919104,14.98339067,.0003078,69.9986,243.9542,268.9661,91.1146,0,U,55747,999,8052,.2215E-3,.2551E-4,0
STARLINK-5580,2023-028H,2024-08-16T04:32:04.036704,14.98327435,.0003209,69.9980,242.9287,266.8405,93.2387,0,U,55748,999,8058,.95491E-4,.1046E-4,0
STARLINK-5560,2023-028J,2024-08-16T04:20:04.363584,14.98319647,.0003116,69.9974,242.9018,274.4503,85.6300,0,U,55749,999,8058,.17159E-3,.1954E-4,0
STARLINK-5573,2023-028K,2024-08-16T04:26:05.030880,14.98316329,.0003085,69.9979,242.9153,266.6297,93.4509,0,U,55750,999,8058,.10866E-3,.1203E-4,0
